STARLINK-35653          
1 66122U 25237J   25363.73943882  .00056799  00000+0  14183-2 0  9993
2 66122  53.1621   7.1763 0001896  92.3814 267.7408 15.39642799 11867
STARLINK-35628          
1 66123U 25237K   25363.73014213  .00065896  00000+0  16411-2 0  9995
2 66123  53.1628   7.1162 0001266 109.6225 250.4917 15.39659004 11868
STARLINK-35645          
1 66124U 25237L   25363.00001157  .00084315  00000+0  20988-2 0  9990
2 66124  53.1614  10.6069 0001354  96.1700 149.0550 15.39559306  5903
STARLINK-35649          
1 66125U 25237M   25363.72086102  .00000332  00000+0  18300-4 0  9997
2 66125  53.1625   7.0594 0001375 108.8932 251.2222 15.39610377 11860
STARLINK-35658          
1 66126U 25237N   25363.72550762  .00102198  00000+0  25266-2 0  9996
2 66126  53.1615   7.0868 0001782  71.8737 288.2461 15.39670281 11863
STARLINK-35629          
1 66127U 25237P   25363.71621998  .00056821  00000+0  14191-2 0  9992
2 66127  53.1606   7.0315 0001731  87.3606 272.7597 15.39638412 11860
STARLINK-35612          
1 66128U 25237Q   25363.66670139  .00019286  00000+0  49149-3 0  9994
2 66128  53.1603   7.8789 0001288  86.2532  48.3771 15.39583557  5801
STARLINK-35632          
1 66129U 25237R   25363.44305626  .00064097  00000+0  15971-2 0  9992
2 66129  53.1621   8.8819 0000508  35.4174 324.6864 15.39655577 11812
STARLINK-35637          
1 66130U 25237S   25363.30858784  .00070936  00000+0  17663-2 0  9996
2 66130  53.1622   9.4638 0001188 101.8194 258.2944 15.39630533 11799
STARLINK-35630          
1 66131U 25237T   25363.43377291  .00078086  00000+0  19410-2 0  9996
2 66131  53.1615   8.8221 0001734 101.6128 258.5072 15.39638214 11817
STARLINK-34412          
1 66132U 25237U   25363.75370672  .00113331  00000+0  27988-2 0  9990
2 66132  53.1624   7.2648 0001935  88.2534 271.8693 15.39646820 11772
STARLINK-35520          
1 66133U 25237V   25363.74906034  .00057745  00000+0  14415-2 0  9994
2 66133  53.1622   7.2362 0001585  89.5579 270.5607 15.39644085 11860
STARLINK-35525          
1 66134U 25237W   25363.74441238  .00069930  00000+0  17415-2 0  9997
2 66134  53.1639   7.2062 0000291 124.8918 235.2114 15.39633618 11860
STARLINK-34852          
1 66135U 25237X   25363.28536968  .00050917  00000+0  12736-2 0  9998
2 66135  53.1633   9.3155 0001086 112.6431 247.4689 15.39638584 11756
STARLINK-35592          
1 66136U 25237Y   25363.73048557  .00074314  00000+0  18487-2 0  9997
2 66136  53.1618   7.1162 0001692  97.9376 262.1821 15.39636980 11862
STARLINK-35576          
1 66137U 25237Z   25363.72120507  .00097456  00000+0  24130-2 0  9997
2 66137  53.1622   7.0572 0002881  77.7603 282.3724 15.39647984 11864
STARLINK-35623          
1 66138U 25237AA  25363.25750786  .00056192  00000+0  14031-2 0  9995
2 66138  53.1623   9.1406 0001438 109.1838 250.9322 15.39649071 11798
