[{"OBJECT_NAME":"STARLINK-35653","OBJECT_ID":"2025-237J","EPOCH":"2025-12-29T17:44:47.514048","MEAN_MOTION":15.39642799,"ECCENTRICITY":0.0001896,"INCLINATION":53.1621,"RA_OF_ASC_NODE":7.1763,"ARG_OF_PERICENTER":92.3814,"MEAN_ANOMALY":267.7408,"EPHEMERIS_TYPE":0,"CLASSIFICATION_TYPE":"U","NORAD_CAT_ID":66122,"ELEMENT_SET_NO":999,"REV_AT_EPOCH":1186,"BSTAR":0.0014183,"MEAN_MOTION_DOT":0.00056799,"MEAN_MOTION_DDOT":0},{"OBJECT_NAME":"STARLINK-35628","OBJECT_ID":"2025-237K","EPOCH":"2025-12-29T17:31:24.280032","MEAN_MOTION":15.39659004,"ECCENTRICITY":0.0001266,"INCLINATION":53.1628,"RA_OF_ASC_NODE":7.1162,"ARG_OF_PERICENTER":109.6225,"MEAN_ANOMALY":250.4917,"EPHEMERIS_TYPE":0,"CLASSIFICATION_TYPE":"U","NORAD_CAT_ID":66123,"ELEMENT_SET_NO":999,"REV_AT_EPOCH":1186,"BSTAR":0.0016411,"MEAN_MOTION_DOT":0.00065896,"MEAN_MOTION_DDOT":0},{"OBJECT_NAME":"STARLINK-35645","OBJECT_ID":"2025-237L","EPOCH":"2025-12-29T00:00:00.999648","MEAN_MOTION":15.39559306,"ECCENTRICITY":0.0001354,"INCLINATION":53.1614,"RA_OF_ASC_NODE":10.6069,"ARG_OF_PERICENTER":96.17,"MEAN_ANOMALY":149.055,"EPHEMERIS_TYPE":0,"CLASSIFICATION_TYPE":"U","NORAD_CAT_ID":66124,"ELEMENT_SET_NO":999,"REV_AT_EPOCH":590,"BSTAR":0.002098797,"MEAN_MOTION_DOT":0.00084315,"MEAN_MOTION_DDOT":0},{"OBJECT_NAME":"STARLINK-35649","OBJECT_ID":"2025-237M","EPOCH":"2025-12-29T17:18:02.392128","MEAN_MOTION":15.39610377,"ECCENTRICITY":0.0001375,"INCLINATION":53.1625,"RA_OF_ASC_NODE":7.0594,"ARG_OF_PERICENTER":108.8932,"MEAN_ANOMALY":251.2222,"EPHEMERIS_TYPE":0,"CLASSIFICATION_TYPE":"U","NORAD_CAT_ID":66125,"ELEMENT_SET_NO":999,"REV_AT_EPOCH":1186,"BSTAR":1.83e-5,"MEAN_MOTION_DOT":3.32e-6,"MEAN_MOTION_DDOT":0},{"OBJECT_NAME":"STARLINK-35658","OBJECT_ID":"2025-237N","EPOCH":"2025-12-29T17:24:43.858368","MEAN_MOTION":15.39670281,"ECCENTRICITY":0.0001782,"INCLINATION":53.1615,"RA_OF_ASC_NODE":7.0868,"ARG_OF_PERICENTER":71.8737,"MEAN_ANOMALY":288.2461,"EPHEMERIS_TYPE":0,"CLASSIFICATION_TYPE":"U","NORAD_CAT_ID":66126,"ELEMENT_SET_NO":999,"REV_AT_EPOCH":1186,"BSTAR":0.0025266,"MEAN_MOTION_DOT":0.00102198,"MEAN_MOTION_DDOT":0},{"OBJECT_NAME":"STARLINK-35629","OBJECT_ID":"2025-237P","EPOCH":"2025-12-29T17:11:21.406272","MEAN_MOTION":15.39638412,"ECCENTRICITY":0.0001731,"INCLINATION":53.1606,"RA_OF_ASC_NODE":7.0315,"ARG_OF_PERICENTER":87.3606,"MEAN_ANOMALY":272.7597,"EPHEMERIS_TYPE":0,"CLASSIFICATION_TYPE":"U","NORAD_CAT_ID":66127,"ELEMENT_SET_NO":999,"REV_AT_EPOCH":1186,"BSTAR":0.0014191,"MEAN_MOTION_DOT":0.00056821,"MEAN_MOTION_DDOT":0},{"OBJECT_NAME":"STARLINK-35612","OBJECT_ID":"2025-237Q","EPOCH":"2025-12-29T16:00:03.000096","MEAN_MOTION":15.39583557,"ECCENTRICITY":0.0001288,"INCLINATION":53.1603,"RA_OF_ASC_NODE":7.8789,"ARG_OF_PERICENTER":86.2532,"MEAN_ANOMALY":48.3771,"EPHEMERIS_TYPE":0,"CLASSIFICATION_TYPE":"U","NORAD_CAT_ID":66128,"ELEMENT_SET_NO":999,"REV_AT_EPOCH":580,"BSTAR":0.00049149,"MEAN_MOTION_DOT":0.00019286,"MEAN_MOTION_DDOT":0},{"OBJECT_NAME":"STARLINK-35632","OBJECT_ID":"2025-237R","EPOCH":"2025-12-29T10:38:00.060864","MEAN_MOTION":15.39655577,"ECCENTRICITY":5.08e-5,"INCLINATION":53.1621,"RA_OF_ASC_NODE":8.8819,"ARG_OF_PERICENTER":35.4174,"MEAN_ANOMALY":324.6864,"EPHEMERIS_TYPE":0,"CLASSIFICATION_TYPE":"U","NORAD_CAT_ID":66129,"ELEMENT_SET_NO":999,"REV_AT_EPOCH":1181,"BSTAR":0.0015971,"MEAN_MOTION_DOT":0.00064097,"MEAN_MOTION_DDOT":0},{"OBJECT_NAME":"STARLINK-35637","OBJECT_ID":"2025-237S","EPOCH":"2025-12-29T07:24:21.989376","MEAN_MOTION":15.39630533,"ECCENTRICITY":0.0001188,"INCLINATION":53.1622,"RA_OF_ASC_NODE":9.4638,"ARG_OF_PERICENTER":101.8194,"MEAN_ANOMALY":258.2944,"EPHEMERIS_TYPE":0,"CLASSIFICATION_TYPE":"U","NORAD_CAT_ID":66130,"ELEMENT_SET_NO":999,"REV_AT_EPOCH":1179,"BSTAR":0.0017663,"MEAN_MOTION_DOT":0.00070936,"MEAN_MOTION_DDOT":0},{"OBJECT_NAME":"STARLINK-35630","OBJECT_ID":"2025-237T","EPOCH":"2025-12-29T10:24:37.979424","MEAN_MOTION":15.39638214,"ECCENTRICITY":0.00017347,"INCLINATION":53.1615,"RA_OF_ASC_NODE":8.8221,"ARG_OF_PERICENTER":101.6128,"MEAN_ANOMALY":258.5072,"EPHEMERIS_TYPE":0,"CLASSIFICATION_TYPE":"U","NORAD_CAT_ID":66131,"ELEMENT_SET_NO":999,"REV_AT_EPOCH":1181,"BSTAR":0.0019410155,"MEAN_MOTION_DOT":0.00078086,"MEAN_MOTION_DDOT":0},{"OBJECT_NAME":"STARLINK-34412","OBJECT_ID":"2025-237U","EPOCH":"2025-12-29T18:05:20.260608","MEAN_MOTION":15.3964682,"ECCENTRICITY":0.0001935,"INCLINATION":53.1624,"RA_OF_ASC_NODE":7.2648,"ARG_OF_PERICENTER":88.2534,"MEAN_ANOMALY":271.8693,"EPHEMERIS_TYPE":0,"CLASSIFICATION_TYPE":"U","NORAD_CAT_ID":66132,"ELEMENT_SET_NO":999,"REV_AT_EPOCH":1177,"BSTAR":0.0027988,"MEAN_MOTION_DOT":0.00113331,"MEAN_MOTION_DDOT":0},{"OBJECT_NAME":"STARLINK-35520","OBJECT_ID":"2025-237V","EPOCH":"2025-12-29T17:58:38.813376","MEAN_MOTION":15.39644085,"ECCENTRICITY":0.0001585,"INCLINATION":53.1622,"RA_OF_ASC_NODE":7.2362,"ARG_OF_PERICENTER":89.5579,"MEAN_ANOMALY":270.5607,"EPHEMERIS_TYPE":0,"CLASSIFICATION_TYPE":"U","NORAD_CAT_ID":66133,"ELEMENT_SET_NO":999,"REV_AT_EPOCH":1186,"BSTAR":0.0014415,"MEAN_MOTION_DOT":0.00057745,"MEAN_MOTION_DDOT":0},{"OBJECT_NAME":"STARLINK-35525","OBJECT_ID":"2025-237W","EPOCH":"2025-12-29T17:51:57.229632","MEAN_MOTION":15.39633618,"ECCENTRICITY":2.91e-5,"INCLINATION":53.1639,"RA_OF_ASC_NODE":7.2062,"ARG_OF_PERICENTER":124.8918,"MEAN_ANOMALY":235.2114,"EPHEMERIS_TYPE":0,"CLASSIFICATION_TYPE":"U","NORAD_CAT_ID":66134,"ELEMENT_SET_NO":999,"REV_AT_EPOCH":1186,"BSTAR":0.0017415,"MEAN_MOTION_DOT":0.0006993,"MEAN_MOTION_DDOT":0},{"OBJECT_NAME":"STARLINK-34852","OBJECT_ID":"2025-237X","EPOCH":"2025-12-29T06:50:55.940352","MEAN_MOTION":15.39638584,"ECCENTRICITY":0.0001086,"INCLINATION":53.1633,"RA_OF_ASC_NODE":9.3155,"ARG_OF_PERICENTER":112.6431,"MEAN_ANOMALY":247.4689,"EPHEMERIS_TYPE":0,"CLASSIFICATION_TYPE":"U","NORAD_CAT_ID":66135,"ELEMENT_SET_NO":999,"REV_AT_EPOCH":1175,"BSTAR":0.0012736,"MEAN_MOTION_DOT":0.00050917,"MEAN_MOTION_DDOT":0},{"OBJECT_NAME":"STARLINK-35592","OBJECT_ID":"2025-237Y","EPOCH":"2025-12-29T17:31:53.953248","MEAN_MOTION":15.3963698,"ECCENTRICITY":0.0001692,"INCLINATION":53.1618,"RA_OF_ASC_NODE":7.1162,"ARG_OF_PERICENTER":97.9376,"MEAN_ANOMALY":262.1821,"EPHEMERIS_TYPE":0,"CLASSIFICATION_TYPE":"U","NORAD_CAT_ID":66136,"ELEMENT_SET_NO":999,"REV_AT_EPOCH":1186,"BSTAR":0.0018487,"MEAN_MOTION_DOT":0.00074314,"MEAN_MOTION_DDOT":0},{"OBJECT_NAME":"STARLINK-35576","OBJECT_ID":"2025-237Z","EPOCH":"2025-12-29T17:18:32.118048","MEAN_MOTION":15.39647984,"ECCENTRICITY":0.0002881,"INCLINATION":53.1622,"RA_OF_ASC_NODE":7.0572,"ARG_OF_PERICENTER":77.7603,"MEAN_ANOMALY":282.3724,"EPHEMERIS_TYPE":0,"CLASSIFICATION_TYPE":"U","NORAD_CAT_ID":66137,"ELEMENT_SET_NO":999,"REV_AT_EPOCH":1186,"BSTAR":0.002413,"MEAN_MOTION_DOT":0.00097456,"MEAN_MOTION_DDOT":0},{"OBJECT_NAME":"STARLINK-35623","OBJECT_ID":"2025-237AA","EPOCH":"2025-12-29T06:10:48.679104","MEAN_MOTION":15.39649071,"ECCENTRICITY":0.0001438,"INCLINATION":53.1623,"RA_OF_ASC_NODE":9.1406,"ARG_OF_PERICENTER":109.1838,"MEAN_ANOMALY":250.9322,"EPHEMERIS_TYPE":0,"CLASSIFICATION_TYPE":"U","NORAD_CAT_ID":66138,"ELEMENT_SET_NO":999,"REV_AT_EPOCH":1179,"BSTAR":0.0014031,"MEAN_MOTION_DOT":0.00056192,"MEAN_MOTION_DDOT":0}]
